[{"OBJECT_NAME":"BEIDOU-2 G5 (C05)","OBJECT_ID":"2012-008A","EPOCH":"2026-04-26T22:24:06.416640","MEAN_MOTION":1.00273179,"ECCENTRICITY":0.00122715,"INCLINATION":3.4483,"RA_OF_ASC_NODE":69.9859,"ARG_OF_PERICENTER":266.067,"MEAN_ANOMALY":273.6426,"EPHEMERIS_TYPE":0,"CLASSIFICATION_TYPE":"U","NORAD_CAT_ID":38091,"ELEMENT_SET_NO":999,"REV_AT_EPOCH":5185,"BSTAR":0,"MEAN_MOTION_DOT":4.8e-7,"MEAN_MOTION_DDOT":0},{"OBJECT_NAME":"BEIDOU-2 M3 (C11)","OBJECT_ID":"2012-018A","EPOCH":"2026-04-26T15:22:42.045888","MEAN_MOTION":1.86229681,"ECCENTRICITY":0.00197161,"INCLINATION":55.8029,"RA_OF_ASC_NODE":306.6119,"ARG_OF_PERICENTER":278.0782,"MEAN_ANOMALY":81.7021,"EPHEMERIS_TYPE":0,"CLASSIFICATION_TYPE":"U","NORAD_CAT_ID":38250,"ELEMENT_SET_NO":999,"REV_AT_EPOCH":9498,"BSTAR":0,"MEAN_MOTION_DOT":-5.7e-7,"MEAN_MOTION_DDOT":0},{"OBJECT_NAME":"BEIDOU-2 M4 (C12)","OBJECT_ID":"2012-018B","EPOCH":"2026-04-26T13:45:05.840064","MEAN_MOTION":1.86229346,"ECCENTRICITY":0.00110177,"INCLINATION":55.7028,"RA_OF_ASC_NODE":305.8322,"ARG_OF_PERICENTER":283.8904,"MEAN_ANOMALY":75.9901,"EPHEMERIS_TYPE":0,"CLASSIFICATION_TYPE":"U","NORAD_CAT_ID":38251,"ELEMENT_SET_NO":999,"REV_AT_EPOCH":9498,"BSTAR":0,"MEAN_MOTION_DOT":-5.7e-7,"MEAN_MOTION_DDOT":0},{"OBJECT_NAME":"SES-5 (EGNOS/PRN 136)","OBJECT_ID":"2012-036A","EPOCH":"2026-04-26T17:00:50.692320","MEAN_MOTION":1.00271509,"ECCENTRICITY":0.00020883,"INCLINATION":0.0594,"RA_OF_ASC_NODE":300.4218,"ARG_OF_PERICENTER":91.2198,"MEAN_ANOMALY":83.2535,"EPHEMERIS_TYPE":0,"CLASSIFICATION_TYPE":"U","NORAD_CAT_ID":38652,"ELEMENT_SET_NO":999,"REV_AT_EPOCH":4394,"BSTAR":0,"MEAN_MOTION_DOT":2.2e-7,"MEAN_MOTION_DDOT":0},{"OBJECT_NAME":"BEIDOU-2 M6 (C14)","OBJECT_ID":"2012-050B","EPOCH":"2026-04-25T05:00:54.365184","MEAN_MOTION":1.86230847,"ECCENTRICITY":0.00144897,"INCLINATION":56.5004,"RA_OF_ASC_NODE":64.6451,"ARG_OF_PERICENTER":348.5468,"MEAN_ANOMALY":11.3943,"EPHEMERIS_TYPE":0,"CLASSIFICATION_TYPE":"U","NORAD_CAT_ID":38775,"ELEMENT_SET_NO":999,"REV_AT_EPOCH":9232,"BSTAR":0,"MEAN_MOTION_DOT":-2.7e-7,"MEAN_MOTION_DDOT":0},{"OBJECT_NAME":"GSAT-10 (GAGAN/PRN 128)","OBJECT_ID":"2012-051B","EPOCH":"2026-04-26T22:31:05.746944","MEAN_MOTION":1.00270013,"ECCENTRICITY":0.00070085,"INCLINATION":0.0228,"RA_OF_ASC_NODE":263.3537,"ARG_OF_PERICENTER":178.5539,"MEAN_ANOMALY":193.7649,"EPHEMERIS_TYPE":0,"CLASSIFICATION_TYPE":"U","NORAD_CAT_ID":38779,"ELEMENT_SET_NO":999,"REV_AT_EPOCH":4958,"BSTAR":0,"MEAN_MOTION_DOT":-1.75e-6,"MEAN_MOTION_DDOT":0},{"OBJECT_NAME":"GPS BIIF-3  (PRN 24)","OBJECT_ID":"2012-053A","EPOCH":"2026-04-23T23:20:21.228288","MEAN_MOTION":2.00566553,"ECCENTRICITY":0.0177937,"INCLINATION":53.5743,"RA_OF_ASC_NODE":145.8203,"ARG_OF_PERICENTER":65.1328,"MEAN_ANOMALY":296.7656,"EPHEMERIS_TYPE":0,"CLASSIFICATION_TYPE":"U","NORAD_CAT_ID":38833,"ELEMENT_SET_NO":999,"REV_AT_EPOCH":9835,"BSTAR":0,"MEAN_MOTION_DOT":4.0e-7,"MEAN_MOTION_DDOT":0},{"OBJECT_NAME":"GSAT0103 (GALILEO-FM3)","OBJECT_ID":"2012-055A","EPOCH":"2026-04-25T02:18:33.957504","MEAN_MOTION":1.70473359,"ECCENTRICITY":0.0005916,"INCLINATION":55.7743,"RA_OF_ASC_NODE":103.0007,"ARG_OF_PERICENTER":295.5097,"MEAN_ANOMALY":64.4243,"EPHEMERIS_TYPE":0,"CLASSIFICATION_TYPE":"U","NORAD_CAT_ID":38857,"ELEMENT_SET_NO":999,"REV_AT_EPOCH":8410,"BSTAR":0,"MEAN_MOTION_DOT":4.7e-7,"MEAN_MOTION_DDOT":0},{"OBJECT_NAME":"BEIDOU-2 G6 (C02)","OBJECT_ID":"2012-059A","EPOCH":"2026-04-26T22:31:20.722656","MEAN_MOTION":1.00274556,"ECCENTRICITY":0.00105753,"INCLINATION":4.2942,"RA_OF_ASC_NODE":74.0532,"ARG_OF_PERICENTER":314.2628,"MEAN_ANOMALY":248.4057,"EPHEMERIS_TYPE":0,"CLASSIFICATION_TYPE":"U","NORAD_CAT_ID":38953,"ELEMENT_SET_NO":999,"REV_AT_EPOCH":4939,"BSTAR":0,"MEAN_MOTION_DOT":-1.83e-6,"MEAN_MOTION_DDOT":0},{"OBJECT_NAME":"LUCH 5B (SDCM/PRN 125)","OBJECT_ID":"2012-061A","EPOCH":"2026-04-26T15:12:01.128096","MEAN_MOTION":1.00271594,"ECCENTRICITY":0.00017467,"INCLINATION":10.3758,"RA_OF_ASC_NODE":50.386,"ARG_OF_PERICENTER":214.428,"MEAN_ANOMALY":161.5503,"EPHEMERIS_TYPE":0,"CLASSIFICATION_TYPE":"U","NORAD_CAT_ID":38977,"ELEMENT_SET_NO":999,"REV_AT_EPOCH":4909,"BSTAR":0,"MEAN_MOTION_DOT":-1.44e-6,"MEAN_MOTION_DDOT":0},{"OBJECT_NAME":"COSMOS 2485 (747)","OBJECT_ID":"2013-019A","EPOCH":"2026-04-23T00:09:33.846336","MEAN_MOTION":2.13103112,"ECCENTRICITY":0.00245834,"INCLINATION":65.3905,"RA_OF_ASC_NODE":75.4553,"ARG_OF_PERICENTER":237.7272,"MEAN_ANOMALY":122.0157,"EPHEMERIS_TYPE":0,"CLASSIFICATION_TYPE":"U","NORAD_CAT_ID":39155,"ELEMENT_SET_NO":999,"REV_AT_EPOCH":10110,"BSTAR":0,"MEAN_MOTION_DOT":2.5e-7,"MEAN_MOTION_DDOT":0},{"OBJECT_NAME":"GPS BIIF-4  (PRN 27)","OBJECT_ID":"2013-023A","EPOCH":"2026-04-26T07:56:33.762048","MEAN_MOTION":2.00563766,"ECCENTRICITY":0.014189,"INCLINATION":54.5462,"RA_OF_ASC_NODE":271.0846,"ARG_OF_PERICENTER":50.6724,"MEAN_ANOMALY":310.5447,"EPHEMERIS_TYPE":0,"CLASSIFICATION_TYPE":"U","NORAD_CAT_ID":39166,"ELEMENT_SET_NO":999,"REV_AT_EPOCH":9484,"BSTAR":0,"MEAN_MOTION_DOT":-4.8e-7,"MEAN_MOTION_DDOT":0},{"OBJECT_NAME":"IRNSS-1A","OBJECT_ID":"2013-034A","EPOCH":"2026-04-26T22:22:59.024640","MEAN_MOTION":1.00272532,"ECCENTRICITY":0.00170194,"INCLINATION":35.6121,"RA_OF_ASC_NODE":64.6024,"ARG_OF_PERICENTER":187.3154,"MEAN_ANOMALY":353.7046,"EPHEMERIS_TYPE":0,"CLASSIFICATION_TYPE":"U","NORAD_CAT_ID":39199,"ELEMENT_SET_NO":999,"REV_AT_EPOCH":4685,"BSTAR":0,"MEAN_MOTION_DOT":7.6e-7,"MEAN_MOTION_DDOT":0},{"OBJECT_NAME":"GPS BIIF-5  (PRN 30)","OBJECT_ID":"2014-008A","EPOCH":"2026-04-25T19:59:36.749472","MEAN_MOTION":2.00556415,"ECCENTRICITY":0.00837832,"INCLINATION":53.6445,"RA_OF_ASC_NODE":151.4553,"ARG_OF_PERICENTER":230.1189,"MEAN_ANOMALY":129.2056,"EPHEMERIS_TYPE":0,"CLASSIFICATION_TYPE":"U","NORAD_CAT_ID":39533,"ELEMENT_SET_NO":999,"REV_AT_EPOCH":8863,"BSTAR":0,"MEAN_MOTION_DOT":5.1e-7,"MEAN_MOTION_DDOT":0},{"OBJECT_NAME":"ASTRA 5B (EGNOS/PRN 123)","OBJECT_ID":"2014-011B","EPOCH":"2026-04-26T22:22:54.881760","MEAN_MOTION":1.00269811,"ECCENTRICITY":0.00026793,"INCLINATION":0.0673,"RA_OF_ASC_NODE":307.7822,"ARG_OF_PERICENTER":65.9397,"MEAN_ANOMALY":200.4278,"EPHEMERIS_TYPE":0,"CLASSIFICATION_TYPE":"U","NORAD_CAT_ID":39617,"ELEMENT_SET_NO":999,"REV_AT_EPOCH":4415,"BSTAR":0,"MEAN_MOTION_DOT":1.26e-6,"MEAN_MOTION_DDOT":0},{"OBJECT_NAME":"COSMOS 2492 (754)","OBJECT_ID":"2014-012A","EPOCH":"2026-04-21T13:23:15.978048","MEAN_MOTION":2.13103169,"ECCENTRICITY":0.00117433,"INCLINATION":65.3303,"RA_OF_ASC_NODE":315.8614,"ARG_OF_PERICENTER":330.3825,"MEAN_ANOMALY":29.5784,"EPHEMERIS_TYPE":0,"CLASSIFICATION_TYPE":"U","NORAD_CAT_ID":39620,"ELEMENT_SET_NO":999,"REV_AT_EPOCH":9403,"BSTAR":0,"MEAN_MOTION_DOT":-2.4e-7,"MEAN_MOTION_DDOT":0},{"OBJECT_NAME":"IRNSS-1B","OBJECT_ID":"2014-017A","EPOCH":"2026-04-26T22:22:51.537216","MEAN_MOTION":1.00272944,"ECCENTRICITY":0.00234429,"INCLINATION":29.0143,"RA_OF_ASC_NODE":241.2832,"ARG_OF_PERICENTER":182.2406,"MEAN_ANOMALY":182.0336,"EPHEMERIS_TYPE":0,"CLASSIFICATION_TYPE":"U","NORAD_CAT_ID":39635,"ELEMENT_SET_NO":999,"REV_AT_EPOCH":4428,"BSTAR":0,"MEAN_MOTION_DOT":7.4e-7,"MEAN_MOTION_DDOT":0}]
